XCUBE-1                 
1 62400U 24247Z   26068.48297321  .00009773  00000+0  36224-3 0  9994
2 62400  44.9938 117.7807 0005235 331.1499  28.9094 15.27910558 67702
STARLINK-32759          
1 62751U 25014S   26068.29247696  .00035353  00000+0  12869-2 0  9996
2 62751  42.9997 160.3567 0003625 294.6034  65.4440 15.27605558 63157
